{
  "type": "FeatureCollection",
  "features": [
    {
      "type": "Feature",
      "properties": {
        "norad_id": 39617,
        "name": "ASTRA 5B (EGNOS/PRN 123)",
        "group": "gnss",
        "lat": -0.06609403214422714,
        "lon": -97.04481459493381,
        "alt_km": 35768.0710853869,
        "timestamp": "2025-12-23T09:49:07.325134+00:00",
        "meta_object_name": "ASTRA 5B (EGNOS/PRN 123)",
        "meta_object_id": "2014-011B",
        "meta_epoch": "2025-12-22T18:24:46.773792",
        "meta_mean_motion": 1.00270415,
        "meta_eccentricity": 0.00044932,
        "meta_inclination": 0.0437,
        "meta_ra_of_asc_node": 7.1427,
        "meta_arg_of_pericenter": 271.5569,
        "meta_mean_anomaly": 112.5607,
        "meta_ephemeris_type": 0,
        "meta_classification_type": "U",
        "meta_norad_cat_id": 39617,
        "meta_element_set_no": 999,
        "meta_rev_at_epoch": 4289,
        "meta_bstar": 0,
        "meta_mean_motion_dot": 1.58e-06,
        "meta_mean_motion_ddot": 0,
        "tle_line1": "1 39617U 14011B   25356.76720803  .00000158  00000+0  00000+0 0  9999",
        "tle_line2": "2 39617   0.0437   7.1427 0004493 271.5569 112.5607  1.00270415 42893"
      },
      "geometry": {
        "type": "Point",
        "coordinates": [
          -97.04481459493381,
          -0.06609403214422714
        ]
      }
    },
    {
      "type": "Feature",
      "properties": {
        "norad_id": 39620,
        "name": "COSMOS 2492 (754)",
        "group": "gnss",
        "lat": 29.91241195646962,
        "lon": -24.838161957849803,
        "alt_km": 19120.034022561547,
        "timestamp": "2025-12-23T09:49:07.325145+00:00",
        "meta_object_name": "COSMOS 2492 (754)",
        "meta_object_id": "2014-012A",
        "meta_epoch": "2025-12-21T22:59:34.433088",
        "meta_mean_motion": 2.13103396,
        "meta_eccentricity": 0.00142426,
        "meta_inclination": 65.4026,
        "meta_ra_of_asc_node": 319.9579,
        "meta_arg_of_pericenter": 313.3292,
        "meta_mean_anomaly": 46.5466,
        "meta_ephemeris_type": 0,
        "meta_classification_type": "U",
        "meta_norad_cat_id": 39620,
        "meta_element_set_no": 999,
        "meta_rev_at_epoch": 9146,
        "meta_bstar": 0,
        "meta_mean_motion_dot": -4.2e-07,
        "meta_mean_motion_ddot": 0,
        "tle_line1": "1 39620U 14012A   25355.95803742 -.00000042  00000+0  00000+0 0  9991",
        "tle_line2": "2 39620  65.4026 319.9579 0014242 313.3292  46.5466  2.13103396 91463"
      },
      "geometry": {
        "type": "Point",
        "coordinates": [
          -24.838161957849803,
          29.91241195646962
        ]
      }
    },
    {
      "type": "Feature",
      "properties": {
        "norad_id": 39635,
        "name": "IRNSS-1B",
        "group": "gnss",
        "lat": 22.272288225180585,
        "lon": -69.49240998711082,
        "alt_km": 35827.290736372954,
        "timestamp": "2025-12-23T09:49:07.325157+00:00",
        "meta_object_name": "IRNSS-1B",
        "meta_object_id": "2014-017A",
        "meta_epoch": "2025-12-22T18:17:38.465664",
        "meta_mean_motion": 1.00271468,
        "meta_eccentricity": 0.00185374,
        "meta_inclination": 29.2378,
        "meta_ra_of_asc_node": 243.4218,
        "meta_arg_of_pericenter": 174.8088,
        "meta_mean_anomaly": 2.8747,
        "meta_ephemeris_type": 0,
        "meta_classification_type": "U",
        "meta_norad_cat_id": 39635,
        "meta_element_set_no": 999,
        "meta_rev_at_epoch": 4302,
        "meta_bstar": 0,
        "meta_mean_motion_dot": 1.47e-06,
        "meta_mean_motion_ddot": 0,
        "tle_line1": "1 39635U 14017A   25356.76225076  .00000147  00000+0  00000+0 0  9995",
        "tle_line2": "2 39635  29.2378 243.4218 0018537 174.8088   2.8747  1.00271468 43029"
      },
      "geometry": {
        "type": "Point",
        "coordinates": [
          -69.49240998711082,
          22.272288225180585
        ]
      }
    },
    {
      "type": "Feature",
      "properties": {
        "norad_id": 39727,
        "name": "LUCH 5V (SDCM/PRN 141)",
        "group": "gnss",
        "lat": -4.674350504191959,
        "lon": -25.788503668526552,
        "alt_km": 35775.53191185018,
        "timestamp": "2025-12-23T09:49:07.325168+00:00",
        "meta_object_name": "LUCH 5V (SDCM/PRN 141)",
        "meta_object_id": "2014-023A",
        "meta_epoch": "2025-12-22T18:45:07.324992",
        "meta_mean_motion": 1.00275286,
        "meta_eccentricity": 0.00037139,
        "meta_inclination": 4.6937,
        "meta_ra_of_asc_node": 71.4549,
        "meta_arg_of_pericenter": 213.5136,
        "meta_mean_anomaly": 182.6099,
        "meta_ephemeris_type": 0,
        "meta_classification_type": "U",
        "meta_norad_cat_id": 39727,
        "meta_element_set_no": 999,
        "meta_rev_at_epoch": 4259,
        "meta_bstar": 0,
        "meta_mean_motion_dot": -2.5e-06,
        "meta_mean_motion_ddot": 0,
        "tle_line1": "1 39727U 14023A   25356.78133478 -.00000250  00000+0  00000+0 0  9996",
        "tle_line2": "2 39727   4.6937  71.4549 0003713 213.5136 182.6099  1.00275286 42590"
      },
      "geometry": {
        "type": "Point",
        "coordinates": [
          -25.788503668526552,
          -4.674350504191959
        ]
      }
    },
    {
      "type": "Feature",
      "properties": {
        "norad_id": 39741,
        "name": "GPS BIIF-6  (PRN 06)",
        "group": "gnss",
        "lat": -31.736006704475297,
        "lon": -45.74993179412381,
        "alt_km": 20081.746409022766,
        "timestamp": "2025-12-23T09:49:07.325180+00:00",
        "meta_object_name": "GPS BIIF-6  (PRN 06)",
        "meta_object_id": "2014-026A",
        "meta_epoch": "2025-12-21T23:12:34.799616",
        "meta_mean_motion": 2.00560759,
        "meta_eccentricity": 0.00394103,
        "meta_inclination": 56.58,
        "meta_ra_of_asc_node": 338.4177,
        "meta_arg_of_pericenter": 319.2097,
        "meta_mean_anomaly": 40.4995,
        "meta_ephemeris_type": 0,
        "meta_classification_type": "U",
        "meta_norad_cat_id": 39741,
        "meta_element_set_no": 999,
        "meta_rev_at_epoch": 8498,
        "meta_bstar": 0,
        "meta_mean_motion_dot": -6.8e-07,
        "meta_mean_motion_ddot": 0,
        "tle_line1": "1 39741U 14026A   25355.96706944 -.00000068  00000+0  00000+0 0  9995",
        "tle_line2": "2 39741  56.5800 338.4177 0039410 319.2097  40.4995  2.00560759 84985"
      },
      "geometry": {
        "type": "Point",
        "coordinates": [
          -45.74993179412381,
          -31.736006704475297
        ]
      }
    },
    {
      "type": "Feature",
      "properties": {
        "norad_id": 40001,
        "name": "COSMOS 2500 (755)",
        "group": "gnss",
        "lat": -63.92435727666888,
        "lon": -150.59283429612807,
        "alt_km": 19121.480647102017,
        "timestamp": "2025-12-23T09:49:07.325194+00:00",
        "meta_object_name": "COSMOS 2500 (755)",
        "meta_object_id": "2014-032A",
        "meta_epoch": "2025-12-21T04:35:55.026240",
        "meta_mean_motion": 2.13106227,
        "meta_eccentricity": 0.00077299,
        "meta_inclination": 65.3386,
        "meta_ra_of_asc_node": 319.7453,
        "meta_arg_of_pericenter": 219.3736,
        "meta_mean_anomaly": 140.5635,
        "meta_ephemeris_type": 0,
        "meta_classification_type": "U",
        "meta_norad_cat_id": 40001,
        "meta_element_set_no": 999,
        "meta_rev_at_epoch": 8966,
        "meta_bstar": 0,
        "meta_mean_motion_dot": -4.7e-07,
        "meta_mean_motion_ddot": 0,
        "tle_line1": "1 40001U 14032A   25355.19160910 -.00000047  00000+0  00000+0 0  9992",
        "tle_line2": "2 40001  65.3386 319.7453 0007729 219.3736 140.5635  2.13106227 89663"
      },
      "geometry": {
        "type": "Point",
        "coordinates": [
          -150.59283429612807,
          -63.92435727666888
        ]
      }
    },
    {
      "type": "Feature",
      "properties": {
        "norad_id": 40105,
        "name": "GPS BIIF-7  (PRN 09)",
        "group": "gnss",
        "lat": -53.7935130101019,
        "lon": -13.194431981217694,
        "alt_km": 20251.892259228734,
        "timestamp": "2025-12-23T09:49:07.325208+00:00",
        "meta_object_name": "GPS BIIF-7  (PRN 09)",
        "meta_object_id": "2014-045A",
        "meta_epoch": "2025-12-22T01:17:45.580992",
        "meta_mean_motion": 2.00573157,
        "meta_eccentricity": 0.00324364,
        "meta_inclination": 55.2345,
        "meta_ra_of_asc_node": 95.5273,
        "meta_arg_of_pericenter": 120.1369,
        "meta_mean_anomaly": 240.1873,
        "meta_ephemeris_type": 0,
        "meta_classification_type": "U",
        "meta_norad_cat_id": 40105,
        "meta_element_set_no": 999,
        "meta_rev_at_epoch": 8252,
        "meta_bstar": 0,
        "meta_mean_motion_dot": -3e-08,
        "meta_mean_motion_ddot": 0,
        "tle_line1": "1 40105U 14045A   25356.05399978 -.00000003  00000+0  00000+0 0  9997",
        "tle_line2": "2 40105  55.2345  95.5273 0032436 120.1369 240.1873  2.00573157 82529"
      },
      "geometry": {
        "type": "Point",
        "coordinates": [
          -13.194431981217694,
          -53.7935130101019
        ]
      }
    }
  ]
}